STARLINK-11270 [DTC]    
1 60999U 24158K   26062.19536913  .00243097  00000+0  19450-2 0  9991
2 60999  53.1562 313.3484 0001145 134.6937 225.4174 15.69810866 86567
STARLINK-11290 [DTC]    
1 61000U 24158L   26061.99946582  .00001274  00000+0  15381-4 0  9999
2 61000  53.1582 314.2595 0000994  49.9182 310.1923 15.69693543 86607
STARLINK-11274 [DTC]    
1 61001U 24158M   26061.92598015  .00001436  00000+0  16720-4 0  9995
2 61001  53.1580 314.5046 0000926  41.3127 318.7961 15.69693836 86522
STARLINK-11288 [DTC]    
1 61002U 24158N   26061.98474961  .00003777  00000+0  36056-4 0  9999
2 61002  53.1581 314.1599 0000801 112.0474 248.0629 15.69682911 86535
STARLINK-32279          
1 61003U 24158P   26062.37421510  .00000138  00000+0  16784-4 0  9990
2 61003  53.1594  94.9154 0001085  96.9078 263.2046 15.30198137 84681
STARLINK-32336          
1 61004U 24158Q   26062.36999346  .00001135  00000+0  50438-4 0  9999
2 61004  53.1603  94.8898 0001202  77.9270 282.1865 15.30195783 84684
STARLINK-32284          
1 61005U 24158R   26062.37738103  .00000606  00000+0  32569-4 0  9990
2 61005  53.1596  94.9372 0001126  97.6089 262.5040 15.30199183 84614
STARLINK-32282          
1 61006U 24158S   26062.36049691  .00000149  00000+0  17157-4 0  9995
2 61006  53.1599  94.8275 0001165  74.7191 285.3939 15.30194777 84683
STARLINK-32360          
1 61007U 24158T   26062.43417141 -.00001635  00000+0 -43076-4 0  9995
2 61007  53.1607  79.2847 0001567  89.2721 270.8459 15.30198023 84833
STARLINK-32340          
1 61008U 24158U   26062.45322043  .00002496  00000+0  96326-4 0  9994
2 61008  53.1601  94.6206 0001228  95.1087 265.0054 15.30209514 84625
STARLINK-32347          
1 61010U 24158W   26062.36363289  .00004399  00000+0  16042-3 0  9994
2 61010  53.1611  94.8435 0001506 104.4900 255.6268 15.30227338 84617
STARLINK-11286 [DTC]    
1 61050U 24164A   26062.16353689  .00001541  00000+0  17587-4 0  9998
2 61050  53.1602 343.4587 0001217 102.3162 257.7992 15.69700054 84393
STARLINK-11252 [DTC]    
1 61051U 24164B   26062.15862918  .00000283  00000+0  71918-5 0  9999
2 61051  53.1578 343.4257 0000777 104.0415 256.0690 15.69698185 84398
STARLINK-11230 [DTC]    
1 61053U 24164D   26062.08513166  .00021820  00000+0  18418-3 0  9995
2 61053  53.1584 343.6728 0001027 121.2585 238.8534 15.69750052 84386
STARLINK-11294 [DTC]    
1 61054U 24164E   26062.08024634 -.00003876  00000+0 -27171-4 0  9993
2 61054  53.1585 343.6402 0001238  61.8554 298.2589 15.69691945 84381
STARLINK-11268 [DTC]    
1 61055U 24164F   26062.20267600 -.00000672  00000+0 -68721-6 0  9999
2 61055  53.1593 342.9789 0001117 140.1981 219.9119 15.69704038 84402
