[{"OBJECT_NAME":"STARLINK-11270 [DTC]","OBJECT_ID":"2024-158K","EPOCH":"2026-03-03T04:41:19.892832","MEAN_MOTION":15.69810866,"ECCENTRICITY":0.0001145,"INCLINATION":53.1562,"RA_OF_ASC_NODE":313.3484,"ARG_OF_PERICENTER":134.6937,"MEAN_ANOMALY":225.4174,"EPHEMERIS_TYPE":0,"CLASSIFICATION_TYPE":"U","NORAD_CAT_ID":60999,"ELEMENT_SET_NO":999,"REV_AT_EPOCH":8656,"BSTAR":0.001945,"MEAN_MOTION_DOT":0.00243097,"MEAN_MOTION_DDOT":0},{"OBJECT_NAME":"STARLINK-11290 [DTC]","OBJECT_ID":"2024-158L","EPOCH":"2026-03-02T23:59:13.846848","MEAN_MOTION":15.69693543,"ECCENTRICITY":9.94e-5,"INCLINATION":53.1582,"RA_OF_ASC_NODE":314.2595,"ARG_OF_PERICENTER":49.9182,"MEAN_ANOMALY":310.1923,"EPHEMERIS_TYPE":0,"CLASSIFICATION_TYPE":"U","NORAD_CAT_ID":61000,"ELEMENT_SET_NO":999,"REV_AT_EPOCH":8660,"BSTAR":1.5381e-5,"MEAN_MOTION_DOT":1.274e-5,"MEAN_MOTION_DDOT":0},{"OBJECT_NAME":"STARLINK-11274 [DTC]","OBJECT_ID":"2024-158M","EPOCH":"2026-03-02T22:13:24.684960","MEAN_MOTION":15.69693836,"ECCENTRICITY":9.26e-5,"INCLINATION":53.158,"RA_OF_ASC_NODE":314.5046,"ARG_OF_PERICENTER":41.3127,"MEAN_ANOMALY":318.7961,"EPHEMERIS_TYPE":0,"CLASSIFICATION_TYPE":"U","NORAD_CAT_ID":61001,"ELEMENT_SET_NO":999,"REV_AT_EPOCH":8652,"BSTAR":1.672e-5,"MEAN_MOTION_DOT":1.436e-5,"MEAN_MOTION_DDOT":0},{"OBJECT_NAME":"STARLINK-11288 [DTC]","OBJECT_ID":"2024-158N","EPOCH":"2026-03-02T23:38:02.366304","MEAN_MOTION":15.69682911,"ECCENTRICITY":8.01e-5,"INCLINATION":53.1581,"RA_OF_ASC_NODE":314.1599,"ARG_OF_PERICENTER":112.0474,"MEAN_ANOMALY":248.0629,"EPHEMERIS_TYPE":0,"CLASSIFICATION_TYPE":"U","NORAD_CAT_ID":61002,"ELEMENT_SET_NO":999,"REV_AT_EPOCH":8653,"BSTAR":3.6056e-5,"MEAN_MOTION_DOT":3.777e-5,"MEAN_MOTION_DDOT":0},{"OBJECT_NAME":"STARLINK-32279","OBJECT_ID":"2024-158P","EPOCH":"2026-03-03T08:58:52.184640","MEAN_MOTION":15.30198137,"ECCENTRICITY":0.0001085,"INCLINATION":53.1594,"RA_OF_ASC_NODE":94.9154,"ARG_OF_PERICENTER":96.9078,"MEAN_ANOMALY":263.2046,"EPHEMERIS_TYPE":0,"CLASSIFICATION_TYPE":"U","NORAD_CAT_ID":61003,"ELEMENT_SET_NO":999,"REV_AT_EPOCH":8468,"BSTAR":1.6784e-5,"MEAN_MOTION_DOT":1.38e-6,"MEAN_MOTION_DDOT":0},{"OBJECT_NAME":"STARLINK-32336","OBJECT_ID":"2024-158Q","EPOCH":"2026-03-03T08:52:47.434944","MEAN_MOTION":15.30195783,"ECCENTRICITY":0.0001202,"INCLINATION":53.1603,"RA_OF_ASC_NODE":94.8898,"ARG_OF_PERICENTER":77.927,"MEAN_ANOMALY":282.1865,"EPHEMERIS_TYPE":0,"CLASSIFICATION_TYPE":"U","NORAD_CAT_ID":61004,"ELEMENT_SET_NO":999,"REV_AT_EPOCH":8468,"BSTAR":5.0438e-5,"MEAN_MOTION_DOT":1.135e-5,"MEAN_MOTION_DDOT":0},{"OBJECT_NAME":"STARLINK-32284","OBJECT_ID":"2024-158R","EPOCH":"2026-03-03T09:03:25.720992","MEAN_MOTION":15.30199183,"ECCENTRICITY":0.0001126,"INCLINATION":53.1596,"RA_OF_ASC_NODE":94.9372,"ARG_OF_PERICENTER":97.6089,"MEAN_ANOMALY":262.504,"EPHEMERIS_TYPE":0,"CLASSIFICATION_TYPE":"U","NORAD_CAT_ID":61005,"ELEMENT_SET_NO":999,"REV_AT_EPOCH":8461,"BSTAR":3.2569e-5,"MEAN_MOTION_DOT":6.06e-6,"MEAN_MOTION_DDOT":0},{"OBJECT_NAME":"STARLINK-32282","OBJECT_ID":"2024-158S","EPOCH":"2026-03-03T08:39:06.933024","MEAN_MOTION":15.30194777,"ECCENTRICITY":0.0001165,"INCLINATION":53.1599,"RA_OF_ASC_NODE":94.8275,"ARG_OF_PERICENTER":74.7191,"MEAN_ANOMALY":285.3939,"EPHEMERIS_TYPE":0,"CLASSIFICATION_TYPE":"U","NORAD_CAT_ID":61006,"ELEMENT_SET_NO":999,"REV_AT_EPOCH":8468,"BSTAR":1.7157e-5,"MEAN_MOTION_DOT":1.49e-6,"MEAN_MOTION_DDOT":0},{"OBJECT_NAME":"STARLINK-32360","OBJECT_ID":"2024-158T","EPOCH":"2026-03-03T10:25:12.409824","MEAN_MOTION":15.30198023,"ECCENTRICITY":0.0001567,"INCLINATION":53.1607,"RA_OF_ASC_NODE":79.2847,"ARG_OF_PERICENTER":89.2721,"MEAN_ANOMALY":270.8459,"EPHEMERIS_TYPE":0,"CLASSIFICATION_TYPE":"U","NORAD_CAT_ID":61007,"ELEMENT_SET_NO":999,"REV_AT_EPOCH":8483,"BSTAR":-4.3076e-5,"MEAN_MOTION_DOT":-1.635e-5,"MEAN_MOTION_DDOT":0},{"OBJECT_NAME":"STARLINK-32340","OBJECT_ID":"2024-158U","EPOCH":"2026-03-03T10:52:38.245152","MEAN_MOTION":15.30209514,"ECCENTRICITY":0.0001228,"INCLINATION":53.1601,"RA_OF_ASC_NODE":94.6206,"ARG_OF_PERICENTER":95.1087,"MEAN_ANOMALY":265.0054,"EPHEMERIS_TYPE":0,"CLASSIFICATION_TYPE":"U","NORAD_CAT_ID":61008,"ELEMENT_SET_NO":999,"REV_AT_EPOCH":8462,"BSTAR":9.6326e-5,"MEAN_MOTION_DOT":2.496e-5,"MEAN_MOTION_DDOT":0},{"OBJECT_NAME":"STARLINK-32347","OBJECT_ID":"2024-158W","EPOCH":"2026-03-03T08:43:37.881696","MEAN_MOTION":15.30227338,"ECCENTRICITY":0.0001506,"INCLINATION":53.1611,"RA_OF_ASC_NODE":94.8435,"ARG_OF_PERICENTER":104.49,"MEAN_ANOMALY":255.6268,"EPHEMERIS_TYPE":0,"CLASSIFICATION_TYPE":"U","NORAD_CAT_ID":61010,"ELEMENT_SET_NO":999,"REV_AT_EPOCH":8461,"BSTAR":0.00016042,"MEAN_MOTION_DOT":4.399e-5,"MEAN_MOTION_DDOT":0},{"OBJECT_NAME":"STARLINK-11286 [DTC]","OBJECT_ID":"2024-164A","EPOCH":"2026-03-03T03:55:29.587296","MEAN_MOTION":15.69700054,"ECCENTRICITY":0.0001217,"INCLINATION":53.1602,"RA_OF_ASC_NODE":343.4587,"ARG_OF_PERICENTER":102.3162,"MEAN_ANOMALY":257.7992,"EPHEMERIS_TYPE":0,"CLASSIFICATION_TYPE":"U","NORAD_CAT_ID":61050,"ELEMENT_SET_NO":999,"REV_AT_EPOCH":8439,"BSTAR":1.7587e-5,"MEAN_MOTION_DOT":1.541e-5,"MEAN_MOTION_DDOT":0},{"OBJECT_NAME":"STARLINK-11252 [DTC]","OBJECT_ID":"2024-164B","EPOCH":"2026-03-03T03:48:25.561152","MEAN_MOTION":15.69698185,"ECCENTRICITY":7.77e-5,"INCLINATION":53.1578,"RA_OF_ASC_NODE":343.4257,"ARG_OF_PERICENTER":104.0415,"MEAN_ANOMALY":256.069,"EPHEMERIS_TYPE":0,"CLASSIFICATION_TYPE":"U","NORAD_CAT_ID":61051,"ELEMENT_SET_NO":999,"REV_AT_EPOCH":8439,"BSTAR":7.1918e-6,"MEAN_MOTION_DOT":2.83e-6,"MEAN_MOTION_DDOT":0},{"OBJECT_NAME":"STARLINK-11230 [DTC]","OBJECT_ID":"2024-164D","EPOCH":"2026-03-03T02:02:35.375424","MEAN_MOTION":15.69750052,"ECCENTRICITY":0.0001027,"INCLINATION":53.1584,"RA_OF_ASC_NODE":343.6728,"ARG_OF_PERICENTER":121.2585,"MEAN_ANOMALY":238.8534,"EPHEMERIS_TYPE":0,"CLASSIFICATION_TYPE":"U","NORAD_CAT_ID":61053,"ELEMENT_SET_NO":999,"REV_AT_EPOCH":8438,"BSTAR":0.00018418,"MEAN_MOTION_DOT":0.0002182,"MEAN_MOTION_DDOT":0},{"OBJECT_NAME":"STARLINK-11294 [DTC]","OBJECT_ID":"2024-164E","EPOCH":"2026-03-03T01:55:33.283776","MEAN_MOTION":15.69691945,"ECCENTRICITY":0.0001238,"INCLINATION":53.1585,"RA_OF_ASC_NODE":343.6402,"ARG_OF_PERICENTER":61.8554,"MEAN_ANOMALY":298.2589,"EPHEMERIS_TYPE":0,"CLASSIFICATION_TYPE":"U","NORAD_CAT_ID":61054,"ELEMENT_SET_NO":999,"REV_AT_EPOCH":8438,"BSTAR":-2.7171e-5,"MEAN_MOTION_DOT":-3.876e-5,"MEAN_MOTION_DDOT":0},{"OBJECT_NAME":"STARLINK-11268 [DTC]","OBJECT_ID":"2024-164F","EPOCH":"2026-03-03T04:51:51.206400","MEAN_MOTION":15.69704038,"ECCENTRICITY":0.0001117,"INCLINATION":53.1593,"RA_OF_ASC_NODE":342.9789,"ARG_OF_PERICENTER":140.1981,"MEAN_ANOMALY":219.9119,"EPHEMERIS_TYPE":0,"CLASSIFICATION_TYPE":"U","NORAD_CAT_ID":61055,"ELEMENT_SET_NO":999,"REV_AT_EPOCH":8440,"BSTAR":-6.8721e-7,"MEAN_MOTION_DOT":-6.72e-6,"MEAN_MOTION_DDOT":0}]
